{
  "type": "FeatureCollection",
  "features": [
    {
      "type": "Feature",
      "geometry": {
        "type": "Point",
        "coordinates": [
          14.9642577,
          38.1541152
        ]
      },
      "properties": {
        "osm_id": 1615512653,
        "osm_type": "node",
        "amenity": "fire_station",
        "name": "Vigili del Fuoco",
        "island": "sicily",
        "source": "overpass"
      }
    },
    {
      "type": "Feature",
      "geometry": {
        "type": "Point",
        "coordinates": [
          15.8584782,
          38.3590386
        ]
      },
      "properties": {
        "osm_id": 1696534671,
        "osm_type": "node",
        "amenity": "fire_station",
        "name": "Caserma dei Vigili del Fuoco di Palmi",
        "island": "sicily",
        "source": "overpass"
      }
    },
    {
      "type": "Feature",
      "geometry": {
        "type": "Point",
        "coordinates": [
          12.5783782,
          38.0118907
        ]
      },
      "properties": {
        "osm_id": 2062465062,
        "osm_type": "node",
        "amenity": "fire_station",
        "name": "",
        "island": "sicily",
        "source": "overpass"
      }
    },
    {
      "type": "Feature",
      "geometry": {
        "type": "Point",
        "coordinates": [
          13.4324653,
          37.5102874
        ]
      },
      "properties": {
        "osm_id": 2319482199,
        "osm_type": "node",
        "amenity": "fire_station",
        "name": "Vigili del Fuoco",
        "island": "sicily",
        "source": "overpass"
      }
    },
    {
      "type": "Feature",
      "geometry": {
        "type": "Point",
        "coordinates": [
          12.4937254,
          37.9033747
        ]
      },
      "properties": {
        "osm_id": 3066295762,
        "osm_type": "node",
        "amenity": "fire_station",
        "name": "",
        "island": "sicily",
        "source": "overpass"
      }
    },
    {
      "type": "Feature",
      "geometry": {
        "type": "Point",
        "coordinates": [
          14.026889,
          38.0312051
        ]
      },
      "properties": {
        "osm_id": 4742684324,
        "osm_type": "node",
        "amenity": "civil_protection",
        "name": "Protezione Civile Giubbe d'Italia - Cefalù",
        "island": "sicily",
        "source": "overpass"
      }
    },
    {
      "type": "Feature",
      "geometry": {
        "type": "Point",
        "coordinates": [
          14.6018465,
          37.787803
        ]
      },
      "properties": {
        "osm_id": 10228227782,
        "osm_type": "node",
        "amenity": "fire_station",
        "name": "Vigili del Fuoco",
        "island": "sicily",
        "source": "overpass"
      }
    },
    {
      "type": "Feature",
      "geometry": {
        "type": "Point",
        "coordinates": [
          13.8572128,
          37.3436212
        ]
      },
      "properties": {
        "osm_id": 10538682953,
        "osm_type": "node",
        "amenity": "fire_station",
        "name": "Distaccamento Vigili del Fuoco",
        "island": "sicily",
        "source": "overpass"
      }
    },
    {
      "type": "Feature",
      "geometry": {
        "type": "Point",
        "coordinates": [
          14.8617355,
          37.8291562
        ]
      },
      "properties": {
        "osm_id": 10622090749,
        "osm_type": "node",
        "amenity": "fire_station",
        "name": "Vigili del Fuoco",
        "island": "sicily",
        "source": "overpass"
      }
    },
    {
      "type": "Feature",
      "geometry": {
        "type": "Point",
        "coordinates": [
          14.1090544,
          37.7888207
        ]
      },
      "properties": {
        "osm_id": 10864472270,
        "osm_type": "node",
        "amenity": "fire_station",
        "name": "",
        "island": "sicily",
        "source": "overpass"
      }
    },
    {
      "type": "Feature",
      "geometry": {
        "type": "Point",
        "coordinates": [
          13.5666789,
          37.2956209
        ]
      },
      "properties": {
        "osm_id": 11527512581,
        "osm_type": "node",
        "amenity": "fire_station",
        "name": "Comando Vigili del Fuoco",
        "island": "sicily",
        "source": "overpass"
      }
    },
    {
      "type": "Feature",
      "geometry": {
        "type": "Point",
        "coordinates": [
          12.4449303,
          37.7937368
        ]
      },
      "properties": {
        "osm_id": 11652159797,
        "osm_type": "node",
        "amenity": "fire_station",
        "name": "Vigili del Fuoco",
        "island": "sicily",
        "source": "overpass"
      }
    },
    {
      "type": "Feature",
      "geometry": {
        "type": "Point",
        "coordinates": [
          14.2423922,
          36.0464695
        ]
      },
      "properties": {
        "osm_id": 12503843068,
        "osm_type": "node",
        "amenity": "fire_station",
        "name": "Fire & Emergency Services",
        "island": "sicily",
        "source": "overpass"
      }
    },
    {
      "type": "Feature",
      "geometry": {
        "type": "Point",
        "coordinates": [
          14.0318505,
          38.0335128
        ]
      },
      "properties": {
        "osm_id": 13067146488,
        "osm_type": "node",
        "amenity": "fire_station",
        "name": "Vigili del Fuoco - Cefalù",
        "island": "sicily",
        "source": "overpass"
      }
    },
    {
      "type": "Feature",
      "geometry": {
        "type": "Point",
        "coordinates": [
          15.4437345,
          38.2447461
        ]
      },
      "properties": {
        "osm_id": 13704558588,
        "osm_type": "node",
        "amenity": "fire_station",
        "name": "Vigili del Fuoco Distaccamento Volontario Villafranca Tirrena",
        "island": "sicily",
        "source": "overpass"
      }
    },
    {
      "type": "Feature",
      "geometry": {
        "type": "Point",
        "coordinates": [
          15.0756914,
          37.5156439
        ]
      },
      "properties": {
        "osm_id": 25950721,
        "osm_type": "way",
        "amenity": "fire_station",
        "name": "Vigili del Fuoco",
        "island": "sicily",
        "source": "overpass"
      }
    },
    {
      "type": "Feature",
      "geometry": {
        "type": "Point",
        "coordinates": [
          14.3985824,
          37.1359247
        ]
      },
      "properties": {
        "osm_id": 51512391,
        "osm_type": "way",
        "amenity": "fire_station",
        "name": "Vigili del Fuoco",
        "island": "sicily",
        "source": "overpass"
      }
    },
    {
      "type": "Feature",
      "geometry": {
        "type": "Point",
        "coordinates": [
          15.0941985,
          37.4983275
        ]
      },
      "properties": {
        "osm_id": 57687511,
        "osm_type": "way",
        "amenity": "fire_station",
        "name": "Vigili del Fuoco",
        "island": "sicily",
        "source": "overpass"
      }
    },
    {
      "type": "Feature",
      "geometry": {
        "type": "Point",
        "coordinates": [
          12.5157607,
          38.0137195
        ]
      },
      "properties": {
        "osm_id": 105309883,
        "osm_type": "way",
        "amenity": "fire_station",
        "name": "Vigili del Fuoco",
        "island": "sicily",
        "source": "overpass"
      }
    },
    {
      "type": "Feature",
      "geometry": {
        "type": "Point",
        "coordinates": [
          15.2559882,
          38.2071669
        ]
      },
      "properties": {
        "osm_id": 147050200,
        "osm_type": "way",
        "amenity": "fire_station",
        "name": "Vigili del Fuoco",
        "island": "sicily",
        "source": "overpass"
      }
    },
    {
      "type": "Feature",
      "geometry": {
        "type": "Point",
        "coordinates": [
          14.9566797,
          38.4769242
        ]
      },
      "properties": {
        "osm_id": 158590450,
        "osm_type": "way",
        "amenity": "fire_station",
        "name": "",
        "island": "sicily",
        "source": "overpass"
      }
    },
    {
      "type": "Feature",
      "geometry": {
        "type": "Point",
        "coordinates": [
          15.6551739,
          38.0729766
        ]
      },
      "properties": {
        "osm_id": 177574744,
        "osm_type": "way",
        "amenity": "fire_station",
        "name": "",
        "island": "sicily",
        "source": "overpass"
      }
    },
    {
      "type": "Feature",
      "geometry": {
        "type": "Point",
        "coordinates": [
          14.608009,
          36.9990295
        ]
      },
      "properties": {
        "osm_id": 211465091,
        "osm_type": "way",
        "amenity": "fire_station",
        "name": "Vigili del Fuoco",
        "island": "sicily",
        "source": "overpass"
      }
    },
    {
      "type": "Feature",
      "geometry": {
        "type": "Point",
        "coordinates": [
          14.2724122,
          36.0264762
        ]
      },
      "properties": {
        "osm_id": 212508229,
        "osm_type": "way",
        "amenity": "fire_station",
        "name": "",
        "island": "sicily",
        "source": "overpass"
      }
    },
    {
      "type": "Feature",
      "geometry": {
        "type": "Point",
        "coordinates": [
          14.8264926,
          36.7192352
        ]
      },
      "properties": {
        "osm_id": 215035994,
        "osm_type": "way",
        "amenity": "fire_station",
        "name": "",
        "island": "sicily",
        "source": "overpass"
      }
    },
    {
      "type": "Feature",
      "geometry": {
        "type": "Point",
        "coordinates": [
          14.2421426,
          37.0805938
        ]
      },
      "properties": {
        "osm_id": 217417223,
        "osm_type": "way",
        "amenity": "fire_station",
        "name": "Distaccamento di Gela Comando Provinciale dei Vigili del Fuoco di Caltanissetta",
        "island": "sicily",
        "source": "overpass"
      }
    },
    {
      "type": "Feature",
      "geometry": {
        "type": "Point",
        "coordinates": [
          15.6461204,
          38.0900025
        ]
      },
      "properties": {
        "osm_id": 233314483,
        "osm_type": "way",
        "amenity": "fire_station",
        "name": "Comando Provinciale Vigili del Fuoco Reggio Calabria",
        "island": "sicily",
        "source": "overpass"
      }
    },
    {
      "type": "Feature",
      "geometry": {
        "type": "Point",
        "coordinates": [
          14.3870677,
          37.4123141
        ]
      },
      "properties": {
        "osm_id": 253004160,
        "osm_type": "way",
        "amenity": "fire_station",
        "name": "",
        "island": "sicily",
        "source": "overpass"
      }
    },
    {
      "type": "Feature",
      "geometry": {
        "type": "Point",
        "coordinates": [
          13.3286289,
          38.1636455
        ]
      },
      "properties": {
        "osm_id": 318110035,
        "osm_type": "way",
        "amenity": "fire_station",
        "name": "Vigili del Fuoco - Distaccamento Cittadino Nord 1",
        "island": "sicily",
        "source": "overpass"
      }
    },
    {
      "type": "Feature",
      "geometry": {
        "type": "Point",
        "coordinates": [
          13.9443085,
          37.1011399
        ]
      },
      "properties": {
        "osm_id": 323844047,
        "osm_type": "way",
        "amenity": "fire_station",
        "name": "Vigili del Fuoco",
        "island": "sicily",
        "source": "overpass"
      }
    },
    {
      "type": "Feature",
      "geometry": {
        "type": "Point",
        "coordinates": [
          14.9178869,
          37.5696552
        ]
      },
      "properties": {
        "osm_id": 338007018,
        "osm_type": "way",
        "amenity": "fire_station",
        "name": "Vigili del Fuoco",
        "island": "sicily",
        "source": "overpass"
      }
    },
    {
      "type": "Feature",
      "geometry": {
        "type": "Point",
        "coordinates": [
          14.5134678,
          36.949141
        ]
      },
      "properties": {
        "osm_id": 385784264,
        "osm_type": "way",
        "amenity": "fire_station",
        "name": "Vigili del Fuoco",
        "island": "sicily",
        "source": "overpass"
      }
    },
    {
      "type": "Feature",
      "geometry": {
        "type": "Point",
        "coordinates": [
          15.2872945,
          37.0778563
        ]
      },
      "properties": {
        "osm_id": 397896390,
        "osm_type": "way",
        "amenity": "fire_station",
        "name": "Vigili del Fuoco",
        "island": "sicily",
        "source": "overpass"
      }
    },
    {
      "type": "Feature",
      "geometry": {
        "type": "Point",
        "coordinates": [
          14.9883512,
          37.2996795
        ]
      },
      "properties": {
        "osm_id": 397896391,
        "osm_type": "way",
        "amenity": "fire_station",
        "name": "Vigili del Fuoco",
        "island": "sicily",
        "source": "overpass"
      }
    },
    {
      "type": "Feature",
      "geometry": {
        "type": "Point",
        "coordinates": [
          15.0785037,
          36.8820951
        ]
      },
      "properties": {
        "osm_id": 397896392,
        "osm_type": "way",
        "amenity": "fire_station",
        "name": "Vigili del Fuoco",
        "island": "sicily",
        "source": "overpass"
      }
    },
    {
      "type": "Feature",
      "geometry": {
        "type": "Point",
        "coordinates": [
          14.9107566,
          37.0682272
        ]
      },
      "properties": {
        "osm_id": 397896393,
        "osm_type": "way",
        "amenity": "fire_station",
        "name": "Vigili del Fuoco",
        "island": "sicily",
        "source": "overpass"
      }
    },
    {
      "type": "Feature",
      "geometry": {
        "type": "Point",
        "coordinates": [
          15.085178,
          36.7225865
        ]
      },
      "properties": {
        "osm_id": 397896394,
        "osm_type": "way",
        "amenity": "fire_station",
        "name": "Vigili del Fuoco",
        "island": "sicily",
        "source": "overpass"
      }
    },
    {
      "type": "Feature",
      "geometry": {
        "type": "Point",
        "coordinates": [
          15.0310098,
          37.1671702
        ]
      },
      "properties": {
        "osm_id": 397896395,
        "osm_type": "way",
        "amenity": "fire_station",
        "name": "Vigili del Fuoco",
        "island": "sicily",
        "source": "overpass"
      }
    },
    {
      "type": "Feature",
      "geometry": {
        "type": "Point",
        "coordinates": [
          15.0528944,
          37.905958
        ]
      },
      "properties": {
        "osm_id": 404895686,
        "osm_type": "way",
        "amenity": "fire_station",
        "name": "Vigili del Fuoco",
        "island": "sicily",
        "source": "overpass"
      }
    },
    {
      "type": "Feature",
      "geometry": {
        "type": "Point",
        "coordinates": [
          15.0610109,
          37.4701498
        ]
      },
      "properties": {
        "osm_id": 409050304,
        "osm_type": "way",
        "amenity": "fire_station",
        "name": "Vigili del Fuoco",
        "island": "sicily",
        "source": "overpass"
      }
    },
    {
      "type": "Feature",
      "geometry": {
        "type": "Point",
        "coordinates": [
          15.2179991,
          37.2325618
        ]
      },
      "properties": {
        "osm_id": 509062760,
        "osm_type": "way",
        "amenity": "fire_station",
        "name": "Vigili del Fuoco",
        "island": "sicily",
        "source": "overpass"
      }
    },
    {
      "type": "Feature",
      "geometry": {
        "type": "Point",
        "coordinates": [
          14.0431704,
          37.4926331
        ]
      },
      "properties": {
        "osm_id": 535777387,
        "osm_type": "way",
        "amenity": "fire_station",
        "name": "",
        "island": "sicily",
        "source": "overpass"
      }
    },
    {
      "type": "Feature",
      "geometry": {
        "type": "Point",
        "coordinates": [
          15.2108168,
          37.7247459
        ]
      },
      "properties": {
        "osm_id": 553158056,
        "osm_type": "way",
        "amenity": "fire_station",
        "name": "Vigili del Fuoco",
        "island": "sicily",
        "source": "overpass"
      }
    },
    {
      "type": "Feature",
      "geometry": {
        "type": "Point",
        "coordinates": [
          13.3575454,
          38.1189009
        ]
      },
      "properties": {
        "osm_id": 584191231,
        "osm_type": "way",
        "amenity": "fire_station",
        "name": "Comando Provinciale Vigili del Fuoco di Palermo",
        "island": "sicily",
        "source": "overpass"
      }
    },
    {
      "type": "Feature",
      "geometry": {
        "type": "Point",
        "coordinates": [
          15.261234,
          37.0907123
        ]
      },
      "properties": {
        "osm_id": 739604499,
        "osm_type": "way",
        "amenity": "fire_station",
        "name": "Vigili del Fuoco",
        "island": "sicily",
        "source": "overpass"
      }
    },
    {
      "type": "Feature",
      "geometry": {
        "type": "Point",
        "coordinates": [
          14.0319043,
          38.0335152
        ]
      },
      "properties": {
        "osm_id": 863272975,
        "osm_type": "way",
        "amenity": "fire_station",
        "name": "",
        "island": "sicily",
        "source": "overpass"
      }
    },
    {
      "type": "Feature",
      "geometry": {
        "type": "Point",
        "coordinates": [
          15.0473361,
          37.5430706
        ]
      },
      "properties": {
        "osm_id": 881761570,
        "osm_type": "way",
        "amenity": "fire_station",
        "name": "Vigili del Fuoco",
        "island": "sicily",
        "source": "overpass"
      }
    },
    {
      "type": "Feature",
      "geometry": {
        "type": "Point",
        "coordinates": [
          15.1871485,
          37.1463512
        ]
      },
      "properties": {
        "osm_id": 905909652,
        "osm_type": "way",
        "amenity": "fire_station",
        "name": "Vigili del Fuoco",
        "island": "sicily",
        "source": "overpass"
      }
    },
    {
      "type": "Feature",
      "geometry": {
        "type": "Point",
        "coordinates": [
          14.3594765,
          37.9245262
        ]
      },
      "properties": {
        "osm_id": 933880049,
        "osm_type": "way",
        "amenity": "fire_station",
        "name": "Vigli del Fuoco distaccamento Volontari Mistretta",
        "island": "sicily",
        "source": "overpass"
      }
    },
    {
      "type": "Feature",
      "geometry": {
        "type": "Point",
        "coordinates": [
          14.7811537,
          36.836623
        ]
      },
      "properties": {
        "osm_id": 985977285,
        "osm_type": "way",
        "amenity": "fire_station",
        "name": "Vigili del Fuoco",
        "island": "sicily",
        "source": "overpass"
      }
    },
    {
      "type": "Feature",
      "geometry": {
        "type": "Point",
        "coordinates": [
          15.2131299,
          37.2563349
        ]
      },
      "properties": {
        "osm_id": 1022609842,
        "osm_type": "way",
        "amenity": "fire_station",
        "name": "Vigili del Fuoco",
        "island": "sicily",
        "source": "overpass"
      }
    },
    {
      "type": "Feature",
      "geometry": {
        "type": "Point",
        "coordinates": [
          13.4062466,
          38.0924217
        ]
      },
      "properties": {
        "osm_id": 1065496508,
        "osm_type": "way",
        "amenity": "fire_station",
        "name": "Distaccamento Cittadino Brancaccio",
        "island": "sicily",
        "source": "overpass"
      }
    },
    {
      "type": "Feature",
      "geometry": {
        "type": "Point",
        "coordinates": [
          14.7246233,
          37.3358047
        ]
      },
      "properties": {
        "osm_id": 1092489834,
        "osm_type": "way",
        "amenity": "fire_station",
        "name": "Vigili del Fuoco",
        "island": "sicily",
        "source": "overpass"
      }
    },
    {
      "type": "Feature",
      "geometry": {
        "type": "Point",
        "coordinates": [
          13.2899086,
          37.8218828
        ]
      },
      "properties": {
        "osm_id": 1100680464,
        "osm_type": "way",
        "amenity": "fire_station",
        "name": "",
        "island": "sicily",
        "source": "overpass"
      }
    },
    {
      "type": "Feature",
      "geometry": {
        "type": "Point",
        "coordinates": [
          13.7473482,
          37.5828045
        ]
      },
      "properties": {
        "osm_id": 1119930774,
        "osm_type": "way",
        "amenity": "fire_station",
        "name": "Vigili del Fuoco",
        "island": "sicily",
        "source": "overpass"
      }
    },
    {
      "type": "Feature",
      "geometry": {
        "type": "Point",
        "coordinates": [
          14.7191824,
          36.9240353
        ]
      },
      "properties": {
        "osm_id": 1122595898,
        "osm_type": "way",
        "amenity": "fire_station",
        "name": "Vigili del Fuoco",
        "island": "sicily",
        "source": "overpass"
      }
    },
    {
      "type": "Feature",
      "geometry": {
        "type": "Point",
        "coordinates": [
          14.5293626,
          37.2303812
        ]
      },
      "properties": {
        "osm_id": 1126126331,
        "osm_type": "way",
        "amenity": "fire_station",
        "name": "Vigili del Fuoco",
        "island": "sicily",
        "source": "overpass"
      }
    },
    {
      "type": "Feature",
      "geometry": {
        "type": "Point",
        "coordinates": [
          15.0750646,
          37.4819832
        ]
      },
      "properties": {
        "osm_id": 1139830953,
        "osm_type": "way",
        "amenity": "fire_station",
        "name": "Vigili del Fuoco",
        "island": "sicily",
        "source": "overpass"
      }
    },
    {
      "type": "Feature",
      "geometry": {
        "type": "Point",
        "coordinates": [
          14.7655865,
          37.172977
        ]
      },
      "properties": {
        "osm_id": 1139830960,
        "osm_type": "way",
        "amenity": "fire_station",
        "name": "Vigili del Fuoco",
        "island": "sicily",
        "source": "overpass"
      }
    },
    {
      "type": "Feature",
      "geometry": {
        "type": "Point",
        "coordinates": [
          15.1418054,
          37.8397683
        ]
      },
      "properties": {
        "osm_id": 1139830961,
        "osm_type": "way",
        "amenity": "fire_station",
        "name": "Vigili del Fuoco",
        "island": "sicily",
        "source": "overpass"
      }
    },
    {
      "type": "Feature",
      "geometry": {
        "type": "Point",
        "coordinates": [
          14.9642921,
          37.8773037
        ]
      },
      "properties": {
        "osm_id": 1139830972,
        "osm_type": "way",
        "amenity": "fire_station",
        "name": "Vigili del Fuoco",
        "island": "sicily",
        "source": "overpass"
      }
    },
    {
      "type": "Feature",
      "geometry": {
        "type": "Point",
        "coordinates": [
          14.8344842,
          37.663408
        ]
      },
      "properties": {
        "osm_id": 1139830974,
        "osm_type": "way",
        "amenity": "fire_station",
        "name": "Vigili del Fuoco",
        "island": "sicily",
        "source": "overpass"
      }
    },
    {
      "type": "Feature",
      "geometry": {
        "type": "Point",
        "coordinates": [
          15.1514628,
          37.6198387
        ]
      },
      "properties": {
        "osm_id": 1139830982,
        "osm_type": "way",
        "amenity": "fire_station",
        "name": "Vigili del Fuoco",
        "island": "sicily",
        "source": "overpass"
      }
    },
    {
      "type": "Feature",
      "geometry": {
        "type": "Point",
        "coordinates": [
          15.0482533,
          37.4496761
        ]
      },
      "properties": {
        "osm_id": 1139830983,
        "osm_type": "way",
        "amenity": "fire_station",
        "name": "Vigili del Fuoco",
        "island": "sicily",
        "source": "overpass"
      }
    },
    {
      "type": "Feature",
      "geometry": {
        "type": "Point",
        "coordinates": [
          14.5207047,
          36.8208949
        ]
      },
      "properties": {
        "osm_id": 1139830987,
        "osm_type": "way",
        "amenity": "fire_station",
        "name": "Vigili del Fuoco",
        "island": "sicily",
        "source": "overpass"
      }
    },
    {
      "type": "Feature",
      "geometry": {
        "type": "Point",
        "coordinates": [
          12.7833999,
          37.6638762
        ]
      },
      "properties": {
        "osm_id": 1147317512,
        "osm_type": "way",
        "amenity": "fire_station",
        "name": "Vigili del Fuoco",
        "island": "sicily",
        "source": "overpass"
      }
    },
    {
      "type": "Feature",
      "geometry": {
        "type": "Point",
        "coordinates": [
          14.3025925,
          37.5484924
        ]
      },
      "properties": {
        "osm_id": 1148267845,
        "osm_type": "way",
        "amenity": "fire_station",
        "name": "Vigili del Fuoco",
        "island": "sicily",
        "source": "overpass"
      }
    },
    {
      "type": "Feature",
      "geometry": {
        "type": "Point",
        "coordinates": [
          14.3992741,
          37.6411781
        ]
      },
      "properties": {
        "osm_id": 1154921919,
        "osm_type": "way",
        "amenity": "fire_station",
        "name": "Vigili del Fuoco",
        "island": "sicily",
        "source": "overpass"
      }
    },
    {
      "type": "Feature",
      "geometry": {
        "type": "Point",
        "coordinates": [
          13.5665644,
          37.2957043
        ]
      },
      "properties": {
        "osm_id": 1240696916,
        "osm_type": "way",
        "amenity": "fire_station",
        "name": "",
        "island": "sicily",
        "source": "overpass"
      }
    },
    {
      "type": "Feature",
      "geometry": {
        "type": "Point",
        "coordinates": [
          13.6856015,
          37.9765923
        ]
      },
      "properties": {
        "osm_id": 1426237527,
        "osm_type": "way",
        "amenity": "fire_station",
        "name": "Vigli del Fuoco",
        "island": "sicily",
        "source": "overpass"
      }
    },
    {
      "type": "Feature",
      "geometry": {
        "type": "Point",
        "coordinates": [
          13.8843124,
          37.9858691
        ]
      },
      "properties": {
        "osm_id": 2945359750,
        "osm_type": "node",
        "amenity": "civil_protection",
        "name": "Protezione Civile (O.N.V.G.I.)",
        "island": "sicily",
        "source": "overpass"
      }
    },
    {
      "type": "Feature",
      "geometry": {
        "type": "Point",
        "coordinates": [
          15.2682338,
          38.172324
        ]
      },
      "properties": {
        "osm_id": 3212823181,
        "osm_type": "node",
        "amenity": "civil_protection",
        "name": "Protezione Civile",
        "island": "sicily",
        "source": "overpass"
      }
    },
    {
      "type": "Feature",
      "geometry": {
        "type": "Point",
        "coordinates": [
          15.2485328,
          38.1792234
        ]
      },
      "properties": {
        "osm_id": 3704811928,
        "osm_type": "node",
        "amenity": "civil_protection",
        "name": "Protezione Civile",
        "island": "sicily",
        "source": "overpass"
      }
    },
    {
      "type": "Feature",
      "geometry": {
        "type": "Point",
        "coordinates": [
          15.655653,
          38.1010504
        ]
      },
      "properties": {
        "osm_id": 8380867161,
        "osm_type": "node",
        "amenity": "civil_protection",
        "name": "Sede UOA di Protezione Civile della Regione Calabria",
        "island": "sicily",
        "source": "overpass"
      }
    },
    {
      "type": "Feature",
      "geometry": {
        "type": "Point",
        "coordinates": [
          15.2164438,
          38.1532621
        ]
      },
      "properties": {
        "osm_id": 9849171358,
        "osm_type": "node",
        "amenity": "civil_protection",
        "name": "Protezione Civile Club Radio C.B.",
        "island": "sicily",
        "source": "overpass"
      }
    },
    {
      "type": "Feature",
      "geometry": {
        "type": "Point",
        "coordinates": [
          15.5456403,
          38.1663533
        ]
      },
      "properties": {
        "osm_id": 12855090753,
        "osm_type": "node",
        "amenity": "civil_protection",
        "name": "Protezione Civile Comunale - Città di Messina",
        "island": "sicily",
        "source": "overpass"
      }
    },
    {
      "type": "Feature",
      "geometry": {
        "type": "Point",
        "coordinates": [
          14.9970746,
          37.292305
        ]
      },
      "properties": {
        "osm_id": 13695412395,
        "osm_type": "node",
        "amenity": "civil_protection",
        "name": "Protezione Civile",
        "island": "sicily",
        "source": "overpass"
      }
    },
    {
      "type": "Feature",
      "geometry": {
        "type": "Point",
        "coordinates": [
          15.2701592,
          37.0613609
        ]
      },
      "properties": {
        "osm_id": 13719047678,
        "osm_type": "node",
        "amenity": "civil_protection",
        "name": "Protezione Civile",
        "island": "sicily",
        "source": "overpass"
      }
    },
    {
      "type": "Feature",
      "geometry": {
        "type": "Point",
        "coordinates": [
          15.0746164,
          37.0277551
        ]
      },
      "properties": {
        "osm_id": 220237980,
        "osm_type": "way",
        "amenity": "civil_protection",
        "name": "Protezione civile",
        "island": "sicily",
        "source": "overpass"
      }
    },
    {
      "type": "Feature",
      "geometry": {
        "type": "Point",
        "coordinates": [
          14.7204738,
          36.919236
        ]
      },
      "properties": {
        "osm_id": 233023989,
        "osm_type": "way",
        "amenity": "civil_protection",
        "name": "Centro Polifunzionale Interculturale - Protezione Civile Comunale",
        "island": "sicily",
        "source": "overpass"
      }
    },
    {
      "type": "Feature",
      "geometry": {
        "type": "Point",
        "coordinates": [
          15.8517694,
          38.3616397
        ]
      },
      "properties": {
        "osm_id": 248112835,
        "osm_type": "way",
        "amenity": "civil_protection",
        "name": "Protezione Civile",
        "island": "sicily",
        "source": "overpass"
      }
    },
    {
      "type": "Feature",
      "geometry": {
        "type": "Point",
        "coordinates": [
          13.343417,
          38.1557597
        ]
      },
      "properties": {
        "osm_id": 280100019,
        "osm_type": "way",
        "amenity": "civil_protection",
        "name": "Sede dell'ufficio di Protezione Civile del Comune di Palermo",
        "island": "sicily",
        "source": "overpass"
      }
    },
    {
      "type": "Feature",
      "geometry": {
        "type": "Point",
        "coordinates": [
          13.3437072,
          38.1559744
        ]
      },
      "properties": {
        "osm_id": 280102591,
        "osm_type": "way",
        "amenity": "civil_protection",
        "name": "Sede dell'ufficio di Protezione civile del Comune di Palrmo",
        "island": "sicily",
        "source": "overpass"
      }
    },
    {
      "type": "Feature",
      "geometry": {
        "type": "Point",
        "coordinates": [
          13.5922931,
          37.3075765
        ]
      },
      "properties": {
        "osm_id": 311090429,
        "osm_type": "way",
        "amenity": "civil_protection",
        "name": "Protezione civile regionale - Soprintendenza regionale -ASL",
        "island": "sicily",
        "source": "overpass"
      }
    },
    {
      "type": "Feature",
      "geometry": {
        "type": "Point",
        "coordinates": [
          14.0300614,
          38.0348283
        ]
      },
      "properties": {
        "osm_id": 316418854,
        "osm_type": "way",
        "amenity": "civil_protection",
        "name": "Area protezione civile",
        "island": "sicily",
        "source": "overpass"
      }
    },
    {
      "type": "Feature",
      "geometry": {
        "type": "Point",
        "coordinates": [
          13.6157209,
          37.4047054
        ]
      },
      "properties": {
        "osm_id": 389073348,
        "osm_type": "way",
        "amenity": "civil_protection",
        "name": "Comune Aragona - Protezione Civile",
        "island": "sicily",
        "source": "overpass"
      }
    },
    {
      "type": "Feature",
      "geometry": {
        "type": "Point",
        "coordinates": [
          13.4191631,
          37.9554795
        ]
      },
      "properties": {
        "osm_id": 425348434,
        "osm_type": "way",
        "amenity": "civil_protection",
        "name": "Area della Protezione Civile di Marineo",
        "island": "sicily",
        "source": "overpass"
      }
    },
    {
      "type": "Feature",
      "geometry": {
        "type": "Point",
        "coordinates": [
          15.0826253,
          36.8849306
        ]
      },
      "properties": {
        "osm_id": 636381124,
        "osm_type": "way",
        "amenity": "civil_protection",
        "name": "Protezione Civile Noto",
        "island": "sicily",
        "source": "overpass"
      }
    },
    {
      "type": "Feature",
      "geometry": {
        "type": "Point",
        "coordinates": [
          12.5893152,
          38.0383914
        ]
      },
      "properties": {
        "osm_id": 722066182,
        "osm_type": "way",
        "amenity": "civil_protection",
        "name": "Protezione Civile",
        "island": "sicily",
        "source": "overpass"
      }
    },
    {
      "type": "Feature",
      "geometry": {
        "type": "Point",
        "coordinates": [
          12.037559,
          36.792417
        ]
      },
      "properties": {
        "osm_id": 918335324,
        "osm_type": "way",
        "amenity": "civil_protection",
        "name": "Area di Protezione Civile",
        "island": "sicily",
        "source": "overpass"
      }
    },
    {
      "type": "Feature",
      "geometry": {
        "type": "Point",
        "coordinates": [
          14.3551513,
          37.9261231
        ]
      },
      "properties": {
        "osm_id": 933880047,
        "osm_type": "way",
        "amenity": "civil_protection",
        "name": "Protezione Civile",
        "island": "sicily",
        "source": "overpass"
      }
    },
    {
      "type": "Feature",
      "geometry": {
        "type": "Point",
        "coordinates": [
          13.6157417,
          37.404714
        ]
      },
      "properties": {
        "osm_id": 1028912262,
        "osm_type": "way",
        "amenity": "civil_protection",
        "name": "Protezione Civile - ex carcere mandamentale",
        "island": "sicily",
        "source": "overpass"
      }
    },
    {
      "type": "Feature",
      "geometry": {
        "type": "Point",
        "coordinates": [
          15.2930467,
          37.0819602
        ]
      },
      "properties": {
        "osm_id": 1170310553,
        "osm_type": "way",
        "amenity": "civil_protection",
        "name": "Sala Operativa di Protezione Civile Giovanni Cassarino",
        "island": "sicily",
        "source": "overpass"
      }
    },
    {
      "type": "Feature",
      "geometry": {
        "type": "Point",
        "coordinates": [
          15.0843362,
          37.5625651
        ]
      },
      "properties": {
        "osm_id": 1263888173,
        "osm_type": "way",
        "amenity": "civil_protection",
        "name": "Protezione Civile",
        "island": "sicily",
        "source": "overpass"
      }
    },
    {
      "type": "Feature",
      "geometry": {
        "type": "Point",
        "coordinates": [
          15.1287385,
          37.1796181
        ]
      },
      "properties": {
        "osm_id": 1275365072,
        "osm_type": "way",
        "amenity": "civil_protection",
        "name": "Protezione Civile Melilli",
        "island": "sicily",
        "source": "overpass"
      }
    },
    {
      "type": "Feature",
      "geometry": {
        "type": "Point",
        "coordinates": [
          15.0073989,
          37.2669198
        ]
      },
      "properties": {
        "osm_id": 1301391358,
        "osm_type": "way",
        "amenity": "civil_protection",
        "name": "Protezione Civile",
        "island": "sicily",
        "source": "overpass"
      }
    },
    {
      "type": "Feature",
      "geometry": {
        "type": "Point",
        "coordinates": [
          14.7944889,
          37.0407546
        ]
      },
      "properties": {
        "osm_id": 1489099608,
        "osm_type": "way",
        "amenity": "civil_protection",
        "name": "Protezione Civile",
        "island": "sicily",
        "source": "overpass"
      }
    }
  ]
}